KUIPER-00112            
1 65150U 25171U   25295.48145940  .00051249  00000+0  13967-2 0  9999
2 65150  51.8794  57.4853 0005446  20.2317 339.8885 15.36956904 12307
KUIPER-00114            
1 65151U 25171V   25295.50002315 -.00074550  00000+0 -97387-2 0  9991
2 65151  51.9004  66.6912 0005493  32.2993   6.2763 14.80431794  5738
KUIPER-00115            
1 65152U 25171W   25295.50002315 -.00883272  00000+0 -67309-1 0  9991
2 65152  51.8930  60.6968 0009830  30.0264 254.9345 15.04402698  4989
KUIPER-00116            
1 65153U 25171X   25295.50002315 -.00024393  00000+0 -26496-2 0  9996
2 65153  51.8985  64.4421 0008858 358.4834 107.0785 14.87438357  5040
KUIPER-00118            
1 65154U 25171Y   25295.50002315 -.00032528  00000+0 -42570-2 0  9997
2 65154  51.9008  66.6571 0001540  54.9539 164.7562 14.79946353  4299
KUIPER-00119            
1 65155U 25171Z   25295.50002315 -.00029439  00000+0 -14734-2 0  9996
2 65155  51.8825  58.6173 0006981 350.0205 181.8733 15.16681680  5695
KUIPER-00132            
1 65763U 25217B   25295.32424115  .00020831  00000+0  59939-3 0  9990
2 65763  51.8648 313.1411 0005882 193.1108 166.9726 15.35726700  4132
